{
  "type": "FeatureCollection",
  "features": [
    {
      "type": "Feature",
      "properties": {
        "norad_id": 35671,
        "name": "COSMOS 2251 DEB",
        "group": "cosmos-2251-debris",
        "lat": 19.991884121168667,
        "lon": -88.06471188917186,
        "alt_km": 743.0137314028252,
        "timestamp": "2025-12-02T19:35:50.951084+00:00",
        "meta_object_name": "COSMOS 2251 DEB",
        "meta_object_id": "1993-036APN",
        "meta_epoch": "2025-12-01T08:11:18.472992",
        "meta_mean_motion": 14.48314652,
        "meta_eccentricity": 0.0041561,
        "meta_inclination": 74.0169,
        "meta_ra_of_asc_node": 100.6857,
        "meta_arg_of_pericenter": 276.6997,
        "meta_mean_anomaly": 113.402,
        "meta_ephemeris_type": 0,
        "meta_classification_type": "U",
        "meta_norad_cat_id": 35671,
        "meta_element_set_no": 999,
        "meta_rev_at_epoch": 86598,
        "meta_bstar": 0.00028068473,
        "meta_mean_motion_dot": 1.032e-05,
        "meta_mean_motion_ddot": 0,
        "tle_line1": "1 35671U 93036APN 25335.34118603  .00001032  00000+0  28068-3 0  9999",
        "tle_line2": "2 35671  74.0169 100.6857 0041561 276.6997 113.4020 14.48314652865986"
      },
      "geometry": {
        "type": "Point",
        "coordinates": [
          -88.06471188917186,
          19.991884121168667
        ]
      }
    },
    {
      "type": "Feature",
      "properties": {
        "norad_id": 35674,
        "name": "COSMOS 2251 DEB",
        "group": "cosmos-2251-debris",
        "lat": -10.342195733229673,
        "lon": 158.23454183691933,
        "alt_km": 783.2776634937845,
        "timestamp": "2025-12-02T19:35:50.951094+00:00",
        "meta_object_name": "COSMOS 2251 DEB",
        "meta_object_id": "1993-036APR",
        "meta_epoch": "2025-12-02T10:28:10.862112",
        "meta_mean_motion": 14.53935413,
        "meta_eccentricity": 0.009596,
        "meta_inclination": 74.0597,
        "meta_ra_of_asc_node": 335.9623,
        "meta_arg_of_pericenter": 23.2163,
        "meta_mean_anomaly": 337.329,
        "meta_ephemeris_type": 0,
        "meta_classification_type": "U",
        "meta_norad_cat_id": 35674,
        "meta_element_set_no": 999,
        "meta_rev_at_epoch": 85961,
        "meta_bstar": 0.0019444,
        "meta_mean_motion_dot": 8.683e-05,
        "meta_mean_motion_ddot": 0,
        "tle_line1": "1 35674U 93036APR 25336.43623683  .00008683  00000+0  19444-2 0  9998",
        "tle_line2": "2 35674  74.0597 335.9623 0095960  23.2163 337.3290 14.53935413859610"
      },
      "geometry": {
        "type": "Point",
        "coordinates": [
          158.23454183691933,
          -10.342195733229673
        ]
      }
    },
    {
      "type": "Feature",
      "properties": {
        "norad_id": 35703,
        "name": "COSMOS 2251 DEB",
        "group": "cosmos-2251-debris",
        "lat": -55.667787377326,
        "lon": 37.854154842552745,
        "alt_km": 648.6045266844958,
        "timestamp": "2025-12-02T19:35:50.951104+00:00",
        "meta_object_name": "COSMOS 2251 DEB",
        "meta_object_id": "1993-036APY",
        "meta_epoch": "2025-11-29T12:54:34.216128",
        "meta_mean_motion": 14.90033275,
        "meta_eccentricity": 0.00657991,
        "meta_inclination": 74.0417,
        "meta_ra_of_asc_node": 69.1804,
        "meta_arg_of_pericenter": 143.4261,
        "meta_mean_anomaly": 217.1441,
        "meta_ephemeris_type": 0,
        "meta_classification_type": "U",
        "meta_norad_cat_id": 35703,
        "meta_element_set_no": 999,
        "meta_rev_at_epoch": 66419,
        "meta_bstar": 0.00097213112,
        "meta_mean_motion_dot": 9.751e-05,
        "meta_mean_motion_ddot": 0,
        "tle_line1": "1 35703U 93036APY 25333.53789602  .00009751  00000+0  97213-3 0  9991",
        "tle_line2": "2 35703  74.0417  69.1804 0065799 143.4261 217.1441 14.90033275664198"
      },
      "geometry": {
        "type": "Point",
        "coordinates": [
          37.854154842552745,
          -55.667787377326
        ]
      }
    },
    {
      "type": "Feature",
      "properties": {
        "norad_id": 35705,
        "name": "COSMOS 2251 DEB",
        "group": "cosmos-2251-debris",
        "lat": 14.734258809585578,
        "lon": 159.08181311420984,
        "alt_km": 658.7687298811543,
        "timestamp": "2025-12-02T19:35:50.951115+00:00",
        "meta_object_name": "COSMOS 2251 DEB",
        "meta_object_id": "1993-036AQA",
        "meta_epoch": "2025-11-30T18:34:55.460928",
        "meta_mean_motion": 14.71601566,
        "meta_eccentricity": 0.00343203,
        "meta_inclination": 74.2748,
        "meta_ra_of_asc_node": 158.7429,
        "meta_arg_of_pericenter": 116.054,
        "meta_mean_anomaly": 244.4173,
        "meta_ephemeris_type": 0,
        "meta_classification_type": "U",
        "meta_norad_cat_id": 35705,
        "meta_element_set_no": 999,
        "meta_rev_at_epoch": 85750,
        "meta_bstar": 0.0026714631,
        "meta_mean_motion_dot": 0.00016783,
        "meta_mean_motion_ddot": 0,
        "tle_line1": "1 35705U 93036AQA 25334.77425302  .00016783  00000+0  26715-2 0  9995",
        "tle_line2": "2 35705  74.2748 158.7429 0034320 116.0540 244.4173 14.71601566857506"
      },
      "geometry": {
        "type": "Point",
        "coordinates": [
          159.08181311420984,
          14.734258809585578
        ]
      }
    },
    {
      "type": "Feature",
      "properties": {
        "norad_id": 35706,
        "name": "COSMOS 2251 DEB",
        "group": "cosmos-2251-debris",
        "lat": 71.7230043812611,
        "lon": -161.86104011876964,
        "alt_km": 790.7308319166577,
        "timestamp": "2025-12-02T19:35:50.951125+00:00",
        "meta_object_name": "COSMOS 2251 DEB",
        "meta_object_id": "1993-036AQB",
        "meta_epoch": "2025-12-01T13:14:17.826144",
        "meta_mean_motion": 13.65877076,
        "meta_eccentricity": 0.03419141,
        "meta_inclination": 73.888,
        "meta_ra_of_asc_node": 81.2903,
        "meta_arg_of_pericenter": 133.1878,
        "meta_mean_anomaly": 229.8353,
        "meta_ephemeris_type": 0,
        "meta_classification_type": "U",
        "meta_norad_cat_id": 35706,
        "meta_element_set_no": 999,
        "meta_rev_at_epoch": 61909,
        "meta_bstar": 0.0013112957,
        "meta_mean_motion_dot": 1.587e-05,
        "meta_mean_motion_ddot": 0,
        "tle_line1": "1 35706U 93036AQB 25335.55159521  .00001587  00000+0  13113-2 0  9994",
        "tle_line2": "2 35706  73.8880  81.2903 0341914 133.1878 229.8353 13.65877076619090"
      },
      "geometry": {
        "type": "Point",
        "coordinates": [
          -161.86104011876964,
          71.7230043812611
        ]
      }
    },
    {
      "type": "Feature",
      "properties": {
        "norad_id": 35711,
        "name": "COSMOS 2251 DEB",
        "group": "cosmos-2251-debris",
        "lat": -70.84763004388613,
        "lon": -175.95039988813508,
        "alt_km": 659.5850755157644,
        "timestamp": "2025-12-02T19:35:50.951135+00:00",
        "meta_object_name": "COSMOS 2251 DEB",
        "meta_object_id": "1993-036AQG",
        "meta_epoch": "2025-12-02T00:16:13.414368",
        "meta_mean_motion": 14.63746545,
        "meta_eccentricity": 0.0085061,
        "meta_inclination": 74.0469,
        "meta_ra_of_asc_node": 241.0434,
        "meta_arg_of_pericenter": 344.6598,
        "meta_mean_anomaly": 15.1992,
        "meta_ephemeris_type": 0,
        "meta_classification_type": "U",
        "meta_norad_cat_id": 35711,
        "meta_element_set_no": 999,
        "meta_rev_at_epoch": 87614,
        "meta_bstar": 0.00037639463,
        "meta_mean_motion_dot": 2.034e-05,
        "meta_mean_motion_ddot": 0,
        "tle_line1": "1 35711U 93036AQG 25336.01126637  .00002034  00000+0  37639-3 0  9992",
        "tle_line2": "2 35711  74.0469 241.0434 0085061 344.6598  15.1992 14.63746545876144"
      },
      "geometry": {
        "type": "Point",
        "coordinates": [
          -175.95039988813508,
          -70.84763004388613
        ]
      }
    },
    {
      "type": "Feature",
      "properties": {
        "norad_id": 35716,
        "name": "COSMOS 2251 DEB",
        "group": "cosmos-2251-debris",
        "lat": 43.542991829983286,
        "lon": 17.360281798223568,
        "alt_km": 674.7255651735004,
        "timestamp": "2025-12-02T19:35:50.951145+00:00",
        "meta_object_name": "COSMOS 2251 DEB",
        "meta_object_id": "1993-036AQM",
        "meta_epoch": "2025-12-01T00:31:48.079200",
        "meta_mean_motion": 14.60063594,
        "meta_eccentricity": 0.00883976,
        "meta_inclination": 73.9936,
        "meta_ra_of_asc_node": 216.6246,
        "meta_arg_of_pericenter": 60.6815,
        "meta_mean_anomaly": 4.1449,
        "meta_ephemeris_type": 0,
        "meta_classification_type": "U",
        "meta_norad_cat_id": 35716,
        "meta_element_set_no": 999,
        "meta_rev_at_epoch": 87456,
        "meta_bstar": 0.00013723681,
        "meta_mean_motion_dot": 6.64e-06,
        "meta_mean_motion_ddot": 0,
        "tle_line1": "1 35716U 93036AQM 25335.02208425  .00000664  00000+0  13724-3 0  9999",
        "tle_line2": "2 35716  73.9936 216.6246 0088397  60.6815   4.1449 14.60063594874569"
      },
      "geometry": {
        "type": "Point",
        "coordinates": [
          17.360281798223568,
          43.542991829983286
        ]
      }
    }
  ]
}